[Satellite]
VERSION=1.1
NAME=BADR-4
NICKNAME=BADR-4
TLE1=1 29526U 06051A   15054.09789375  .00000119  00000-0  10000-3 0  9994
TLE2=2 29526   0.0476 314.8178 0005340  32.5171 226.5174  1.00273279 30456
